{
    "links": {
        "self": "http://www.neowsapp.com/rest/v1/neo/3145504?api_key=iIulBulltgU6a56xZRHN4H3l9WmuAYTsLGpBGhQ2"
    },
    "id": "3145504",
    "neo_reference_id": "3145504",
    "name": "(2002 YR5)",
    "designation": "2002 YR5",
    "nasa_jpl_url": "http://ssd.jpl.nasa.gov/sbdb.cgi?sstr=3145504",
    "absolute_magnitude_h": 21.738,
    "estimated_diameter": {
        "kilometers": {
            "estimated_diameter_min": 0.119386433,
            "estimated_diameter_max": 0.2669561798
        },
        "meters": {
            "estimated_diameter_min": 119.3864329902,
            "estimated_diameter_max": 266.9561797572
        },
        "miles": {
            "estimated_diameter_min": 0.0741832673,
            "estimated_diameter_max": 0.1658788284
        },
        "feet": {
            "estimated_diameter_min": 391.6877848114,
            "estimated_diameter_max": 875.8405127947
        }
    },
    "is_potentially_hazardous_asteroid": false,
    "close_approach_data": [
        {
            "close_approach_date": "2002-12-21",
            "close_approach_date_full": "2002-Dec-21 20:29",
            "epoch_date_close_approach": 1040502540000,
            "relative_velocity": {
                "kilometers_per_second": "14.2000514396",
                "kilometers_per_hour": "51120.1851825071",
                "miles_per_hour": "31764.0950652084"
            },
            "miss_distance": {
                "astronomical": "0.1680455095",
                "lunar": "65.3697031955",
                "kilometers": "25139250.284264765",
                "miles": "15620805.780253157"
            },
            "orbiting_body": "Earth"
        }
    ],
    "orbital_data": {
        "orbit_id": "10",
        "orbit_determination_date": "2017-04-06 09:14:28",
        "first_observation_date": "2002-12-31",
        "last_observation_date": "2003-01-04",
        "data_arc_in_days": 4,
        "observations_used": 38,
        "orbit_uncertainty": "9",
        "minimum_orbit_intersection": ".167325",
        "jupiter_tisserand_invariant": "3.102",
        "epoch_osculation": "2452641.5",
        "eccentricity": ".5684298763077473",
        "semi_major_axis": "2.549278110929496",
        "inclination": "22.85505547435465",
        "ascending_node_longitude": "99.08958714967154",
        "orbital_period": "1486.703118251284",
        "perihelion_distance": "1.100192269659795",
        "perihelion_argument": "326.2009684292046",
        "aphelion_distance": "3.998363952199198",
        "perihelion_time": "2452606.842354740382",
        "mean_anomaly": "8.392228509036899",
        "mean_motion": ".2421465291762121",
        "equinox": "J2000",
        "orbit_class": {
            "orbit_class_type": "AMO",
            "orbit_class_description": "Near-Earth asteroid orbits similar to that of 1221 Amor",
            "orbit_class_range": "1.017 AU < q (perihelion) < 1.3 AU"
        }
    },
    "is_sentry_object": false
}